MEAN_MOTION;ECCENTRICITY;INCLINATION;RA_OF_ASC_NODE;ARG_OF_PERICENTER;MEAN_ANOMALY;BSTAR;MEAN_MOTION_DOT;MEAN_MOTION_DDOT;TYPE
1.00271108;0.0001845;1.2293;92.312;292.3794;62.7314;0;-2.37E-6;0;Intelsat
1.00270973;0.0001885;1.2303;92.3072;293.5435;197.8795;0;-2.39E-6;0;Intelsat
1.00270714;0.000195;1.2319;92.3045;295.1808;82.8558;0;-2.41E-6;0;Intelsat
1.00270553;0.0002007;1.2331;92.3005;297.2697;262.1567;0;-2.43E-6;0;Intelsat
1.00270403;0.000205;1.2343;92.2967;298.2294;56.679;0;-2.44E-6;0;Intelsat
1.00270223;0.0002114;1.2357;92.2926;300.6492;276.4377;0;-2.46E-6;0;Intelsat
1.00270106;0.0002156;1.2367;92.2894;301.5663;56.1593;0;-2.47E-6;0;Intelsat
1.00269954;0.0002218;1.2382;92.2835;303.9071;277.9295;0;-2.48E-6;0;Intelsat
1.00273265;0.0002179;1.2407;92.2769;302.7209;265.1451;0;-2.49E-6;0;Intelsat
1.00273032;0.0002207;1.2418;92.2733;303.7369;59.607;0;-2.49E-6;0;Intelsat
1.00272823;0.0002286;1.2439;92.2647;306.6385;7.6834;0;-2.49E-6;0;Intelsat
1.00272809;0.0002307;1.2442;92.2653;307.0887;59.067;0;-2.48E-6;0;Intelsat
1.00272686;0.0002404;1.2465;92.2566;310.5801;32.5056;0;-2.48E-6;0;Intelsat
1.00272679;0.0002415;1.2467;92.2565;310.8404;58.1311;0;-2.48E-6;0;Intelsat
1.00272576;0.0002497;1.2489;92.2466;313.7384;32.1379;0;-2.47E-6;0;Intelsat
1.00272571;0.0002508;1.249;92.2463;314.0084;57.7928;0;-2.47E-6;0;Intelsat
1.0027248;0.0002582;1.2512;92.2363;316.626;32.0873;0;-2.46E-6;0;Intelsat
1.00272375;0.0002667;1.2534;92.2242;319.4667;32.0516;0;-2.45E-6;0;Intelsat
1.00272371;0.0002675;1.2536;92.2236;319.747;57.689;0;-2.45E-6;0;Intelsat
1.00272261;0.000273;1.2557;92.2124;321.8157;32.531;0;-2.44E-6;0;Intelsat
1.00272258;0.0002736;1.2558;92.2116;322.0569;58.1908;0;-2.44E-6;0;Intelsat
1.00278022;0.0002533;1.2567;92.2086;317.8322;217.925;0;-2.43E-6;0;Intelsat
1.00275712;0.0002457;1.2576;92.201;321.6434;9.6213;0;-2.43E-6;0;Intelsat
1.00272392;0.0002251;1.2578;92.2028;314.8768;68.2168;0;-2.43E-6;0;Intelsat
1.00272211;0.0002258;1.2585;92.1968;315.4128;170.8735;0;-2.43E-6;0;Intelsat
1.0027209;0.0002283;1.259;92.1959;315.9904;248.4982;0;-2.43E-6;0;Intelsat
1.0027201;0.0002303;1.2601;92.1894;317.235;68.6337;0;-2.42E-6;0;Intelsat
1.00271936;0.0002315;1.2607;92.1854;317.8751;170.1595;0;-2.42E-6;0;Intelsat
1.002719;0.0002324;1.2612;92.1833;318.2237;249.0306;0;-2.42E-6;0;Intelsat
1.00271821;0.0002332;1.2623;92.1772;318.9304;69.1391;0;-2.41E-6;0;Intelsat
1.00271713;0.0002339;1.2634;92.1704;319.9093;250.1535;0;-2.41E-6;0;Intelsat
1.00271612;0.0002347;1.2644;92.1645;320.4763;70.9979;0;-2.4E-6;0;Intelsat
1.00271488;0.0002358;1.2655;92.159;321.5083;251.39;0;-2.39E-6;0;Intelsat
1.00271386;0.0002365;1.2664;92.1533;321.8837;52.6971;0;-2.38E-6;0;Intelsat
1.00271231;0.0002369;1.2676;92.1467;322.7096;252.9988;0;-2.37E-6;0;Intelsat
1.0027111;0.0002376;1.2686;92.1396;323.0441;74.055;0;-2.36E-6;0;Intelsat
1.00270957;0.0002376;1.2697;92.1331;323.6019;254.9215;0;-2.35E-6;0;Intelsat
1.00270818;0.0002386;1.2707;92.1262;323.9614;75.8982;0;-2.34E-6;0;Intelsat
1.00273301;0.0002262;1.2726;92.1178;321.3575;29.5547;0;-2.31E-6;0;Intelsat
1.00273269;0.0002262;1.2727;92.1168;321.3353;55.4797;0;-2.31E-6;0;Intelsat
1.00273141;0.0002231;1.2747;92.1034;320.9521;32.768;0;-2.29E-6;0;Intelsat
1.00273111;0.0002229;1.275;92.1018;320.769;77.8491;0;-2.29E-6;0;Intelsat
1.00272947;0.0002233;1.2761;92.0949;320.6239;266.3604;0;-2.27E-6;0;Intelsat
1.00272832;0.0002276;1.2768;92.0887;321.4171;35.128;0;-2.27E-6;0;Intelsat
1.00272782;0.0002273;1.2771;92.0867;321.2317;83.4128;0;-2.27E-6;0;Intelsat
1.00272469;0.0002305;1.2782;92.0829;322.7836;266.9317;0;-2.26E-6;0;Intelsat
1.0027233;0.0002312;1.279;92.0784;323.2371;35.4756;0;-2.26E-6;0;Intelsat
1.00272282;0.0002319;1.2793;92.0761;323.2766;87.1185;0;-2.25E-6;0;Intelsat
1.00271948;0.0002341;1.2812;92.0666;323.6351;38.5577;0;-2.25E-6;0;Intelsat
1.0027192;0.0002346;1.2814;92.0654;323.6911;67.6658;0;-2.25E-6;0;Intelsat
1.00271553;0.0002385;1.2835;92.0557;324.153;40.849;0;-2.26E-6;0;Intelsat
1.00271522;0.0002391;1.2837;92.0546;324.2145;72.5502;0;-2.25E-6;0;Intelsat
1.00271126;0.0002441;1.2861;92.0448;324.6323;77.9382;0;-2.27E-6;0;Intelsat
1.00271012;0.0002477;1.2869;92.0422;324.8779;189.2199;0;-2.28E-6;0;Intelsat
1.00277637;0.0002269;1.2873;92.04;316.7907;264.0003;0;-2.28E-6;0;Intelsat
1.00275474;0.000216;1.2885;92.0373;320.2618;88.379;0;-2.29E-6;0;Intelsat
1.00273614;0.0002086;1.2893;92.0294;306.755;195.2708;0;-2.3E-6;0;Intelsat
1.0027145;0.0002099;1.2896;92.0336;310.665;231.3544;0;-2.31E-6;0;Intelsat
1.0027139;0.0002147;1.2908;92.0298;311.8257;61.6257;0;-2.32E-6;0;Intelsat
1.00271124;0.0002204;1.2921;92.0267;312.7852;267.9666;0;-2.34E-6;0;Intelsat
1.00270953;0.0002236;1.2933;92.0246;313.3457;82.4871;0;-2.36E-6;0;Intelsat
1.00270643;0.0002324;1.2957;92.0193;315.3532;63.6819;0;-2.39E-6;0;Intelsat
1.00270627;0.000233;1.2958;92.0186;315.4672;85.9518;0;-2.39E-6;0;Intelsat
1.00270327;0.000243;1.2981;92.0146;317.9473;64.428;0;-2.42E-6;0;Intelsat
1.0027031;0.0002438;1.2983;92.0138;318.0881;89.6814;0;-2.42E-6;0;Intelsat
1.00270049;0.0002535;1.3006;92.0091;320.5486;64.1153;0;-2.44E-6;0;Intelsat
1.00270036;0.0002544;1.3007;92.0082;320.7074;89.8741;0;-2.44E-6;0;Intelsat
1.00269817;0.0002639;1.3031;92.003;323.1715;64.2821;0;-2.44E-6;0;Intelsat
1.00272719;0.0002634;1.3055;91.9965;322.9815;67.2721;0;-2.44E-6;0;Intelsat
1.00272411;0.0002713;1.3077;91.9909;325.0752;16.1586;0;-2.43E-6;0;Intelsat
1.00272239;0.0002825;1.3103;91.9845;327.9992;41.9663;0;-2.42E-6;0;Intelsat
1.00272232;0.0002834;1.3104;91.9841;328.2017;67.6812;0;-2.42E-6;0;Intelsat
1.00272123;0.0002921;1.3127;91.9781;330.7542;59.6473;0;-2.41E-6;0;Intelsat
1.00272027;0.0003005;1.3151;91.9699;333.3127;65.1594;0;-2.4E-6;0;Intelsat
1.00271923;0.0003076;1.3174;91.9612;335.7553;68.4298;0;-2.39E-6;0;Intelsat
1.00271887;0.0003096;1.318;91.958;336.5062;172.6387;0;-2.39E-6;0;Intelsat
1.0027184;0.0003105;1.3187;91.9554;336.9607;274.6733;0;-2.39E-6;0;Intelsat
1.00271804;0.0003133;1.3197;91.9516;338.05;71.2066;0;-2.38E-6;0;Intelsat
1.00275903;0.0002839;1.3208;91.9476;334.6576;253.8862;0;-2.38E-6;0;Intelsat
1.0027331;0.0002698;1.3219;91.9449;329.7704;83.6018;0;-2.37E-6;0;Intelsat
1.00272815;0.0002747;1.3226;91.9401;330.1615;196.0452;0;-2.37E-6;0;Intelsat
1.00272108;0.0002749;1.3232;91.9377;331.3387;285.9358;0;-2.37E-6;0;Intelsat
1.00272038;0.0002747;1.3241;91.9336;332.1544;80.5999;0;-2.36E-6;0;Intelsat
1.00272057;0.0002738;1.3251;91.9276;332.0099;262.1581;0;-2.36E-6;0;Intelsat
1.00271905;0.0002709;1.3262;91.9228;332.1818;92.9213;0;-2.35E-6;0;Intelsat
1.00271842;0.0002705;1.3273;91.9198;332.4978;264.4848;0;-2.34E-6;0;Intelsat
1.00271627;0.0002754;1.3284;91.9156;335.8015;72.5598;0;-2.33E-6;0;Intelsat
1.00271504;0.0002755;1.3295;91.9113;336.8201;262.9632;0;-2.32E-6;0;Intelsat
1.00271386;0.0002749;1.3305;91.9071;337.3004;76.6751;0;-2.31E-6;0;Intelsat
1.00271244;0.0002749;1.3316;91.9026;338.2709;264.3119;0;-2.3E-6;0;Intelsat
1.00271131;0.0002745;1.3325;91.8983;338.5942;59.4901;0;-2.29E-6;0;Intelsat
1.00270957;0.000274;1.3338;91.8936;339.5309;265.8881;0;-2.27E-6;0;Intelsat
1.00270836;0.0002735;1.3347;91.8892;339.7704;61.0863;0;-2.26E-6;0;Intelsat
1.00273381;0.0002646;1.3358;91.8846;337.5958;270.5713;0;-2.25E-6;0;Intelsat
1.00273024;0.0002616;1.3369;91.879;337.3667;92.2245;0;-2.23E-6;0;Intelsat
1.00272876;0.0002604;1.338;91.8758;337.6336;273.3502;0;-2.22E-6;0;Intelsat
1.00272736;0.0002596;1.3386;91.873;337.8585;16.8005;0;-2.22E-6;0;Intelsat
1.0027269;0.0002591;1.339;91.872;337.7591;68.7039;0;-2.21E-6;0;Intelsat
1.00272515;0.0002586;1.3402;91.8675;337.8998;275.8734;0;-2.2E-6;0;Intelsat
1.00272344;0.0002609;1.341;91.865;339.5137;43.8564;0;-2.2E-6;0;Intelsat
1.0027232;0.0002609;1.3412;91.8642;339.5232;69.7647;0;-2.19E-6;0;Intelsat
1.00272112;0.0002606;1.3424;91.8603;339.6931;271.1525;0;-2.19E-6;0;Intelsat
1.00271933;0.0002607;1.3436;91.8564;340.0635;84.1732;0;-2.18E-6;0;Intelsat
1.00271836;0.0002613;1.3442;91.8547;340.116;184.7354;0;-2.19E-6;0;Intelsat
1.00271577;0.0002613;1.3456;91.8503;340.8128;48.1897;0;-2.18E-6;0;Intelsat
1.00271332;0.0002632;1.3471;91.8455;341.0829;281.1311;0;-2.19E-6;0;Intelsat
1.00271165;0.0002636;1.3481;91.8433;341.4609;76.2563;0;-2.2E-6;0;Intelsat
1.00270944;0.0002663;1.3495;91.8397;341.7258;283.298;0;-2.21E-6;0;Intelsat
1.00270804;0.0002665;1.3504;91.8391;341.9745;52.6031;0;-2.22E-6;0;Intelsat
1.00277388;0.0002519;1.3521;91.8366;334.7468;293.0889;0;-2.23E-6;0;Intelsat
1.00273545;0.0002304;1.3529;91.836;332.1818;65.2135;0;-2.24E-6;0;Intelsat
1.00271639;0.0002426;1.3544;91.8319;329.39;301.2356;0;-2.26E-6;0;Intelsat
1.00271295;0.0002489;1.3569;91.8277;330.3508;303.1001;0;-2.3E-6;0;Intelsat
1.00271174;0.0002506;1.3577;91.8295;330.7054;72.2963;0;-2.31E-6;0;Intelsat
1.00270957;0.0002569;1.3593;91.8263;332.3593;303.8658;0;-2.33E-6;0;Intelsat
1.00270854;0.0002593;1.3602;91.8276;332.7607;73.0406;0;-2.34E-6;0;Intelsat
1.0027071;0.0002646;1.3614;91.8259;334.1798;259.1449;0;-2.35E-6;0;Intelsat
1.00270574;0.0002685;1.3626;91.8251;334.7089;73.8929;0;-2.36E-6;0;Intelsat
1.00270562;0.0002693;1.3628;91.8241;334.8998;99.6344;0;-2.36E-6;0;Intelsat
1.00270329;0.0002783;1.3651;91.8224;336.7329;90.5573;0;-2.37E-6;0;Intelsat
1.00270279;0.000281;1.3658;91.821;337.7202;180.4168;0;-2.37E-6;0;Intelsat
1.00270134;0.0002877;1.3675;91.8194;338.8774;75.3404;0;-2.37E-6;0;Intelsat
1.00270082;0.0002909;1.3682;91.8173;339.934;182.351;0;-2.38E-6;0;Intelsat
1.00270043;0.0002928;1.3687;91.8166;340.6892;254.9018;0;-2.37E-6;0;Intelsat
1.00271748;0.000294;1.3706;91.8138;340.5823;177.8411;0;-2.37E-6;0;Intelsat
1.00271909;0.0002988;1.3722;91.8113;341.1074;78.709;0;-2.36E-6;0;Intelsat
1.0027187;0.000301;1.373;91.8097;341.9818;184.451;0;-2.36E-6;0;Intelsat
1.00271778;0.0003068;1.3744;91.8079;343.5592;47.2385;0;-2.35E-6;0;Intelsat
1.00271675;0.0003144;1.3768;91.8025;345.8289;53.6701;0;-2.35E-6;0;Intelsat
1.00271668;0.0003152;1.3769;91.8019;346.0119;79.4037;0;-2.34E-6;0;Intelsat
1.00271571;0.0003208;1.379;91.7964;348.0332;54.278;0;-2.34E-6;0;Intelsat
1.00271488;0.0003235;1.3805;91.7907;349.3376;286.2025;0;-2.33E-6;0;Intelsat
